start=new Date('2023-04-13T00:00:00.000Z').valueOf();
sats=[{"BSTAR":"-0.00001884900000","TLE_LINE2":"2 52485  53.2153 137.8427 0001217  91.7566 268.3565 15.08835019 52026","MEAN_ELEMENT_THEORY":"SGP4","OBJECT_TYPE":"PAYLOAD","ELEMENT_SET_NO":"999","INCLINATION":"53.2153","MEAN_ANOMALY":"268.3565","TLE_LINE1":"1 52485U 22049AL  23102.41805381 -.00000588  00000-0 -18849-4 0  9996","ARG_OF_PERICENTER":"91.7566","LAUNCH_DATE":"2022-05-06","TIME_SYSTEM":"UTC","MEAN_MOTION_DOT":"-0.00000588","APOAPSIS":"540.603","DECAY_DATE":null,"REV_AT_EPOCH":"5202","EPOCH":"2023-04-12T10:01:59.849184","ECCENTRICITY":"0.00012170","MEAN_MOTION_DDOT":"0.0000000000000","OBJECT_ID":"2022-049AL","OBJECT_NAME":"STARLINK-3913","NORAD_CAT_ID":"52485","MEAN_MOTION":"15.08835019","CLASSIFICATION_TYPE":"U","RCS_SIZE":"LARGE","COUNTRY_CODE":"US","EPHEMERIS_TYPE":"0","FILE":"3886349","PERIAPSIS":"538.919","SEMIMAJOR_AXIS":"6917.896","SITE":"AFETR","PERIOD":"95.438","RA_OF_ASC_NODE":"137.8427","REF_FRAME":"TEME","CENTER_NAME":"EARTH","GP_ID":"229983438"},{"SITE":"AFETR","SEMIMAJOR_AXIS":"6917.907","CENTER_NAME":"EARTH","RA_OF_ASC_NODE":"147.9651","PERIOD":"95.438","REF_FRAME":"TEME","GP_ID":"229983676","COUNTRY_CODE":"US","EPHEMERIS_TYPE":"0","PERIAPSIS":"538.702","FILE":"3886349","MEAN_MOTION":"15.08831354","CLASSIFICATION_TYPE":"U","RCS_SIZE":"LARGE","OBJECT_ID":"2022-049AM","OBJECT_NAME":"STARLINK-3918","NORAD_CAT_ID":"52486","DECAY_DATE":null,"EPOCH":"2023-04-12T09:23:35.307168","REV_AT_EPOCH":"5188","MEAN_MOTION_DDOT":"0.0000000000000","ECCENTRICITY":"0.00015470","TLE_LINE1":"1 52486U 22049AM  23102.39138087  .00000793  00000-0  67928-4 0  9994","LAUNCH_DATE":"2022-05-06","ARG_OF_PERICENTER":"79.6213","TIME_SYSTEM":"UTC","MEAN_MOTION_DOT":"0.00000793","APOAPSIS":"540.842","INCLINATION":"53.2160","MEAN_ANOMALY":"280.4953","TLE_LINE2":"2 52486  53.2160 147.9651 0001547  79.6213 280.4953 15.08831354 51883","BSTAR":"0.00006792800000","OBJECT_TYPE":"PAYLOAD","MEAN_ELEMENT_THEORY":"SGP4","ELEMENT_SET_NO":"999"},{"MEAN_ANOMALY":"277.1035","INCLINATION":"53.2179","ELEMENT_SET_NO":"999","OBJECT_TYPE":"PAYLOAD","MEAN_ELEMENT_THEORY":"SGP4","TLE_LINE2":"2 52487  53.2179 138.1996 0001393  83.0116 277.1035 15.08830677 53252","BSTAR":"0.00008159100000","MEAN_MOTION_DDOT":"0.0000000000000","ECCENTRICITY":"0.00013930","EPOCH":"2023-04-12T08:42:32.266080","REV_AT_EPOCH":"5325","DECAY_DATE":null,"MEAN_MOTION_DOT":"0.00001011","APOAPSIS":"540.738","TIME_SYSTEM":"UTC","LAUNCH_DATE":"2022-05-06","ARG_OF_PERICENTER":"83.0116","TLE_LINE1":"1 52487U 22049AN  23102.36287345  .00001011  00000-0  81591-4 0  9990","RCS_SIZE":"LARGE","CLASSIFICATION_TYPE":"U","MEAN_MOTION":"15.08830677","NORAD_CAT_ID":"52487","OBJECT_NAME":"STARLINK-3902","OBJECT_ID":"2022-049AN","GP_ID":"229982441","CENTER_NAME":"EARTH","PERIOD":"95.438","RA_OF_ASC_NODE":"138.1996","REF_FRAME":"TEME","SITE":"AFETR","SEMIMAJOR_AXIS":"6917.909","PERIAPSIS":"538.810","FILE":"3886349","EPHEMERIS_TYPE":"0","COUNTRY_CODE":"US"},{"EPHEMERIS_TYPE":"0","COUNTRY_CODE":"US","PERIAPSIS":"538.704","FILE":"3886349","CENTER_NAME":"EARTH","REF_FRAME":"TEME","PERIOD":"95.437","RA_OF_ASC_NODE":"147.3827","SITE":"AFETR","SEMIMAJOR_AXIS":"6917.872","GP_ID":"229982690","OBJECT_NAME":"STARLINK-3892","OBJECT_ID":"2022-049AP","NORAD_CAT_ID":"52488","MEAN_MOTION":"15.08842677","CLASSIFICATION_TYPE":"U","RCS_SIZE":"LARGE","LAUNCH_DATE":"2022-05-06","ARG_OF_PERICENTER":"94.8609","TLE_LINE1":"1 52488U 22049AP  23102.52017546  .00000336  00000-0  39219-4 0  9992","MEAN_MOTION_DOT":"0.00000336","APOAPSIS":"540.770","TIME_SYSTEM":"UTC","EPOCH":"2023-04-12T12:29:03.159744","REV_AT_EPOCH":"5190","DECAY_DATE":null,"MEAN_MOTION_DDOT":"0.0000000000000","ECCENTRICITY":"0.00014930","TLE_LINE2":"2 52488  53.2157 147.3827 0001493  94.8609 265.2554 15.08842677 51909","BSTAR":"0.00003921900000","ELEMENT_SET_NO":"999","OBJECT_TYPE":"PAYLOAD","MEAN_ELEMENT_THEORY":"SGP4","INCLINATION":"53.2157","MEAN_ANOMALY":"265.2554"},{"APOAPSIS":"540.736","MEAN_MOTION_DOT":"0.00001405","TIME_SYSTEM":"UTC","LAUNCH_DATE":"2022-05-06","ARG_OF_PERICENTER":"96.1056","TLE_LINE1":"1 52489U 22049AQ  23102.39505737  .00001405  00000-0  10638-3 0  9993","ECCENTRICITY":"0.00013960","MEAN_MOTION_DDOT":"0.0000000000000","EPOCH":"2023-04-12T09:28:52.956768","REV_AT_EPOCH":"5188","DECAY_DATE":null,"ELEMENT_SET_NO":"999","OBJECT_TYPE":"PAYLOAD","MEAN_ELEMENT_THEORY":"SGP4","TLE_LINE2":"2 52489  53.2164 147.9409 0001396  96.1056 264.0095 15.08831875 51885","BSTAR":"0.00010638000000","MEAN_ANOMALY":"264.0095","INCLINATION":"53.2164","PERIAPSIS":"538.804","FILE":"3886349","EPHEMERIS_TYPE":"0","COUNTRY_CODE":"US","GP_ID":"229982938","CENTER_NAME":"EARTH","REF_FRAME":"TEME","PERIOD":"95.438","RA_OF_ASC_NODE":"147.9409","SITE":"AFETR","SEMIMAJOR_AXIS":"6917.905","NORAD_CAT_ID":"52489","OBJECT_NAME":"STARLINK-3923","OBJECT_ID":"2022-049AQ","CLASSIFICATION_TYPE":"U","RCS_SIZE":"LARGE","MEAN_MOTION":"15.08831875"},{"PERIAPSIS":"538.889","FILE":"3886349","EPHEMERIS_TYPE":"0","COUNTRY_CODE":"US","GP_ID":"229983176","PERIOD":"95.438","REF_FRAME":"TEME","RA_OF_ASC_NODE":"137.9068","CENTER_NAME":"EARTH","SEMIMAJOR_AXIS":"6917.893","SITE":"AFETR","NORAD_CAT_ID":"52490","OBJECT_NAME":"STARLINK-3914","OBJECT_ID":"2022-049AR","CLASSIFICATION_TYPE":"U","RCS_SIZE":"LARGE","MEAN_MOTION":"15.08835991","MEAN_MOTION_DOT":"-0.00000684","APOAPSIS":"540.627","TIME_SYSTEM":"UTC","ARG_OF_PERICENTER":"97.9769","LAUNCH_DATE":"2022-05-06","TLE_LINE1":"1 52490U 22049AR  23102.40333569 -.00000684  00000-0 -24903-4 0  9990","ECCENTRICITY":"0.00012560","MEAN_MOTION_DDOT":"0.0000000000000","REV_AT_EPOCH":"5202","EPOCH":"2023-04-12T09:40:48.203616","DECAY_DATE":null,"ELEMENT_SET_NO":"999","MEAN_ELEMENT_THEORY":"SGP4","OBJECT_TYPE":"PAYLOAD","BSTAR":"-0.00002490300000","TLE_LINE2":"2 52490  53.2143 137.9068 0001256  97.9769 262.1366 15.08835991 52029","MEAN_ANOMALY":"262.1366","INCLINATION":"53.2143"},{"TLE_LINE2":"2 52491  53.2139 137.8739 0001296 104.0154 256.0982 15.08840281 52025","BSTAR":"0.00000026550000","OBJECT_TYPE":"PAYLOAD","MEAN_ELEMENT_THEORY":"SGP4","ELEMENT_SET_NO":"999","INCLINATION":"53.2139","MEAN_ANOMALY":"256.0982","TLE_LINE1":"1 52491U 22049AS  23102.41069507 -.00000284  00000-0  26550-6 0  9997","LAUNCH_DATE":"2022-05-06","ARG_OF_PERICENTER":"104.0154","TIME_SYSTEM":"UTC","APOAPSIS":"540.641","MEAN_MOTION_DOT":"-0.00000284","DECAY_DATE":null,"EPOCH":"2023-04-12T09:51:24.054048","REV_AT_EPOCH":"5202","MEAN_MOTION_DDOT":"0.0000000000000","ECCENTRICITY":"0.00012960","OBJECT_ID":"2022-049AS","OBJECT_NAME":"STARLINK-3908","NORAD_CAT_ID":"52491","MEAN_MOTION":"15.08840281","RCS_SIZE":"LARGE","CLASSIFICATION_TYPE":"U","COUNTRY_CODE":"US","EPHEMERIS_TYPE":"0","PERIAPSIS":"538.848","FILE":"3886349","SITE":"AFETR","SEMIMAJOR_AXIS":"6917.880","CENTER_NAME":"EARTH","REF_FRAME":"TEME","PERIOD":"95.438","RA_OF_ASC_NODE":"137.8739","GP_ID":"229981941"},{"ECCENTRICITY":"0.00012510","MEAN_MOTION_DDOT":"0.0000000000000","REV_AT_EPOCH":"5202","EPOCH":"2023-04-12T09:30:12.827520","DECAY_DATE":null,"MEAN_MOTION_DOT":"-0.00000506","APOAPSIS":"540.640","TIME_SYSTEM":"UTC","ARG_OF_PERICENTER":"100.4952","LAUNCH_DATE":"2022-05-06","TLE_LINE1":"1 52492U 22049AT  23102.39598180 -.00000506  00000-0 -13702-4 0  9990","MEAN_ANOMALY":"259.6181","INCLINATION":"53.2173","ELEMENT_SET_NO":"999","MEAN_ELEMENT_THEORY":"SGP4","OBJECT_TYPE":"PAYLOAD","BSTAR":"-0.00001370200000","TLE_LINE2":"2 52492  53.2173 137.9374 0001251 100.4952 259.6181 15.08830465 52020","GP_ID":"229982191","RA_OF_ASC_NODE":"137.9374","PERIOD":"95.438","REF_FRAME":"TEME","CENTER_NAME":"EARTH","SEMIMAJOR_AXIS":"6917.910","SITE":"AFETR","FILE":"3886349","PERIAPSIS":"538.909","EPHEMERIS_TYPE":"0","COUNTRY_CODE":"US","RCS_SIZE":"LARGE","CLASSIFICATION_TYPE":"U","MEAN_MOTION":"15.08830465","NORAD_CAT_ID":"52492","OBJECT_NAME":"STARLINK-3916","OBJECT_ID":"2022-049AT"},{"ARG_OF_PERICENTER":"110.0511","LAUNCH_DATE":"2022-05-06","TLE_LINE1":"1 52493U 22049AU  23102.80445471 -.00002996  00000-0 -17019-3 0  9990","APOAPSIS":"540.577","MEAN_MOTION_DOT":"-0.00002996","TIME_SYSTEM":"UTC","REV_AT_EPOCH":"5224","EPOCH":"2023-04-12T19:18:24.886944","DECAY_DATE":null,"ECCENTRICITY":"0.00012380","MEAN_MOTION_DDOT":"0.0000000000000","BSTAR":"-0.00017019000000","TLE_LINE2":"2 52493  53.2149 136.1059 0001238 110.0511 250.0614 15.08848283 52245","ELEMENT_SET_NO":"999","MEAN_ELEMENT_THEORY":"SGP4","OBJECT_TYPE":"PAYLOAD","INCLINATION":"53.2149","MEAN_ANOMALY":"250.0614","EPHEMERIS_TYPE":"0","COUNTRY_CODE":"US","PERIAPSIS":"538.864","FILE":"3886498","RA_OF_ASC_NODE":"136.1059","PERIOD":"95.437","REF_FRAME":"TEME","CENTER_NAME":"EARTH","SEMIMAJOR_AXIS":"6917.855","SITE":"AFETR","GP_ID":"229989253","OBJECT_NAME":"STARLINK-3883","OBJECT_ID":"2022-049AU","NORAD_CAT_ID":"52493","MEAN_MOTION":"15.08848283","RCS_SIZE":"LARGE","CLASSIFICATION_TYPE":"U"},{"DECAY_DATE":null,"EPOCH":"2023-04-12T09:14:18.459168","REV_AT_EPOCH":"5202","MEAN_MOTION_DDOT":"0.0000000000000","ECCENTRICITY":"0.00015320","TLE_LINE1":"1 52494U 22049AV  23102.38493587 -.00000181  00000-0  67369-5 0  9993","LAUNCH_DATE":"2022-05-06","ARG_OF_PERICENTER":"94.4717","TIME_SYSTEM":"UTC","APOAPSIS":"540.812","MEAN_MOTION_DOT":"-0.00000181","INCLINATION":"53.2139","MEAN_ANOMALY":"265.6450","TLE_LINE2":"2 52494  53.2139 137.9908 0001532  94.4717 265.6450 15.08837820 52028","BSTAR":"0.00000673690000","OBJECT_TYPE":"PAYLOAD","MEAN_ELEMENT_THEORY":"SGP4","ELEMENT_SET_NO":"999","SITE":"AFETR","SEMIMAJOR_AXIS":"6917.887","CENTER_NAME":"EARTH","REF_FRAME":"TEME","PERIOD":"95.438","RA_OF_ASC_NODE":"137.9908","GP_ID":"229983677","COUNTRY_CODE":"US","EPHEMERIS_TYPE":"0","PERIAPSIS":"538.692","FILE":"3886349","MEAN_MOTION":"15.08837820","CLASSIFICATION_TYPE":"U","RCS_SIZE":"LARGE","OBJECT_ID":"2022-049AV","OBJECT_NAME":"STARLINK-3857","NORAD_CAT_ID":"52494"}];
